satname,norad_id,inclination_deg,eccentricity,mean_motion_rev_per_day,perigee_km,apogee_km,l1,l2
STARLINK-1404,45686,53.1597,0.0004148,15.40000999,443.2756705678639,448.93706286489123,1 45686U 20035AF  26117.43873903  .00048726  00000+0  12050-2 0  9999,2 45686  53.1597 181.3362 0004148  18.5276 341.5879 15.40000999326466
STARLINK-1413,45689,53.1576,0.0002861,15.31610339,469.0477428602371,472.96682321899243,1 45689U 20035AJ  26117.87514873  .00044658  00000+0  14462-2 0  9997,2 45689  53.1576 181.0174 0002861  36.1986 323.9209 15.31610339326420
STARLINK-1417,45693,53.049,0.0005042,15.14939153,517.6846652978293,524.6419197127907,1 45693U 20035AN  26117.91647440  .00027113  00000+0  14480-2 0  9991,2 45693  53.0490 190.7646 0005042  18.5204 341.5971 15.14939153326354
STARLINK-1420,45695,53.0465,0.000706,15.63521867,372.7237222115491,382.26267204989836,1 45695U 20035AQ  26117.79356695  .00112928  00000+0  11847-2 0  9991,2 45695  53.0465 143.7040 0007060   4.4579 355.6496 15.63521867327010
STARLINK-1422,45696,53.157,0.0002854,15.31753612,468.6255614200345,472.5348091894075,1 45696U 20035AR  26117.68441580  .00038211  00000+0  12347-2 0  9996,2 45696  53.1570 181.8814 0002854  27.3908 332.7244 15.31753612326473
STARLINK-1351,45697,53.0465,0.0007659,15.60564054,380.84601305266096,391.207358986906,1 45697U 20035AS  26117.31543171  .00103323  00000+0  12174-2 0  9991,2 45697  53.0465 145.8891 0007659   2.7578 357.3476 15.60564054326943
STARLINK-1400,45700,53.0444,0.000614,15.59180401,385.87222539641425,394.18353186737295,1 45700U 20035AV  26117.91778525  .00058822  00000+0  73768-3 0  9995,2 45700  53.0444 144.9227 0006140 334.2164  25.8541 15.59180401327002
STARLINK-1403,45701,53.1574,0.0002433,15.30632136,472.25798608420155,475.5921994985529,1 45701U 20035AW  26117.86507465  .00031075  00000+0  10429-2 0  9998,2 45701  53.1574 168.2848 0002433  33.1815 326.9338 15.30632136326672
STARLINK-1407,45703,53.029,0.0002128,15.68316276,362.2833415712166,365.1526750627563,1 45703U 20035AY  26117.91670139 -.00012253  00000+0 -10219-3 0  9992,2 45703  53.0290  74.2202 0002128 329.0281 217.8375 15.68316276  5963
STARLINK-1411,45706,53.036,0.0005297,15.74042162,343.79570797427914,350.9206975921079,1 45706U 20035BB  26117.91670139  .00118638  00000+0  80747-3 0  9990,2 45706  53.0360  98.7765 0005297  46.9732  22.4596 15.74042162  5978
STARLINK-1423,45710,53.0439,0.0008028,15.64876005,368.1751000262402,379.0156815528926,1 45710U 20035BF  26117.33833209  .00061201  00000+0  61478-3 0  9993,2 45710  53.0439 145.6723 0008028 335.5186  24.5446 15.64876005326930
STARLINK-1433,45711,53.0434,0.0007539,15.64554808,369.42860104398824,379.61025640722164,1 45711U 20035BG  26117.88772824  .00083219  00000+0  84255-3 0  9990,2 45711  53.0434 141.4529 0007539 346.0361  14.0444 15.64554808327041
STARLINK-1434,45712,53.0497,0.0003872,15.31053242,470.01599388115574,475.3212577577906,1 45712U 20035BH  26117.78710708  .00022854  00000+0  76091-3 0  9990,2 45712  53.0497 151.8135 0003872 338.1314  21.9520 15.31053242326901
STARLINK-1465,45731,53.0485,0.0004211,15.57754217,391.30644547014526,397.0100725372786,1 45731U 20038B   26117.91037794  .00089622  00000+0  11784-2 0  9999,2 45731  53.0485 345.5667 0004211 121.7126 238.4296 15.57754217324031
STARLINK-1471,45735,53.0451,0.000196,15.51516484,410.96679683482944,413.6286472458696,1 45735U 20038F   26117.70659296  .00029587  00000+0  49764-3 0  9991,2 45735  53.0451 266.7009 0001960  56.4004 303.7191 15.51516484325137
STARLINK-1480,45741,53.0512,0.0002473,15.59153627,388.43157464486376,391.7791473166053,1 45741U 20038M   26117.90740658  .00055346  00000+0  69591-3 0  9995,2 45741  53.0512 339.4117 0002473 196.7535 163.3396 15.59153627324137
STARLINK-1500,45744,53.0365,0.0003308,15.37345317,451.7030579054817,456.2231753426395,1 45744U 20038Q   26117.86414145  .00029715  00000+0  80732-3 0  9993,2 45744  53.0365 321.6089 0003308  80.6555 279.4822 15.37345317324372
STARLINK-1504,45746,53.0209,0.0001261,15.5647181,397.02317563516954,398.73208652512676,1 45746U 20038S   26117.92252244  .00038379  00000+0  53675-3 0  9994,2 45746  53.0209 264.0505 0001261  18.7347 341.3710 15.56471810325174
STARLINK-1506,45747,53.0754,0.0003934,15.27663073,480.1012641085381,485.4994496209192,1 45747U 20038T   26117.88360501  .00009125  00000+0  34537-3 0  9999,2 45747  53.0754 334.5780 0003934  69.2014 290.9406 15.27663073324205
STARLINK-1464,45751,53.0491,0.0002062,15.50041366,415.204103033544,418.00625470811065,1 45751U 20038X   26117.86292987  .00076066  00000+0  13276-2 0  9998,2 45751  53.0491 329.7567 0002062 131.3294 228.7892 15.50041366324264
STARLINK-1477,45754,53.0495,0.0003208,15.16832579,513.209155856257,517.6320624182781,1 45754U 20038AA  26117.89098754  .00029927  00000+0  15128-2 0  9992,2 45754  53.0495 348.8871 0003208 126.5321 233.5968 15.16832579323994
STARLINK-1478,45755,53.0469,6.19e-05,15.63730346,376.47459992052245,377.31087260187087,1 45755U 20038AB  26117.91670139  .00133614  00000+0  13871-2 0  9991,2 45755  53.0469 318.3153 0000619 145.1426 203.9545 15.63730346  5852
STARLINK-1493,45759,53.0499,0.0004206,15.58405218,389.42447536436885,395.1197435072263,1 45759U 20038AF  26117.89294443  .00092052  00000+0  11806-2 0  9998,2 45759  53.0499 326.8231 0004206 195.3412 164.7473 15.58405218324295
STARLINK-1494,45760,53.043,0.0003094,15.86492908,310.05440075641854,314.194334490704,1 45760U 20038AG  26117.91670139  .00235817  00000+0  89345-3 0  9995,2 45760  53.0430 264.6957 0003094 271.4392 135.2792 15.86492908  5996
STARLINK-1502,45764,53.0491,0.0006249,15.54951151,398.0575393753752,406.5317228279273,1 45764U 20038AL  26117.85056915  .00091802  00000+0  13380-2 0  9991,2 45764  53.0491 329.7701 0006249 175.2679 184.8391 15.54951151324265
STARLINK-1470,45772,53.0454,0.0002281,15.32129312,467.89860033398236,471.0224743305125,1 45772U 20038AU  26117.79191996  .00036676  00000+0  11719-2 0  9994,2 45772  53.0454 305.6540 0002281 185.1908 174.9068 15.32129312324593
STARLINK-1482,45773,53.1582,0.0002659,15.34298263,461.18658089175915,464.8247005480953,1 45773U 20038AV  26117.86457074  .00037362  00000+0  11149-2 0  9995,2 45773  53.1582 321.9163 0002659 182.9898 177.1089 15.34298263324380
STARLINK-1496,45780,53.0478,0.0002807,15.5653639,395.7882325388373,399.59218193298057,1 45780U 20038BC  26117.89032666  .00087297  00000+0  12019-2 0  9991,2 45780  53.0478 300.8599 0002807 311.0263  49.0505 15.56536390324656
STARLINK-1513,45786,53.1597,0.0001304,15.31696816,469.8563917825586,471.642581378258,1 45786U 20038BJ  26117.86002770 -.00000539  00000+0 -55907-5 0  9999,2 45786  53.1597 322.6251 0001304  85.4872 274.6278 15.31696816324376
STARLINK-1522,46027,53.0625,0.00012,15.11362642,531.2141869741954,532.8726302722644,1 46027U 20055A   26117.78554503  .00034845  00000+0  20495-2 0  9990,2 46027  53.0625 264.8147 0001200 229.5792 130.5095 15.11362642316300
STARLINK-1523,46028,53.1594,0.0001395,15.30175998,474.33068339053625,476.24278861287985,1 46028U 20055B   26117.76960271 -.00004477  00000+0 -13923-3 0  9991,2 46028  53.1594 258.7293 0001395  91.7808 268.3352 15.30175998316418
STARLINK-1526,46029,53.1592,0.0001403,15.30181981,474.307338589575,476.2304042770993,1 46029U 20055C   26117.76327871 -.00002625  00000+0 -76586-4 0  9993,2 46029  53.1592 258.7692 0001403  87.5821 272.5340 15.30181981316400
STARLINK-1555,46032,53.1579,0.0001636,15.30173306,474.1735526121556,476.4159954886254,1 46032U 20055F   26117.81280255 -.00002424  00000+0 -69797-4 0  9990,2 46032  53.1579 258.5232 0001636  85.0893 275.0295 15.30173306316417
STARLINK-1556,46033,53.1617,0.0001282,15.30184732,474.3820517146378,476.1392628739686,1 46033U 20055G   26117.79592924 -.00001910  00000+0 -52401-4 0  9990,2 46033  53.1617 258.6179 0001282  78.9913 281.1232 15.30184732316383
STARLINK-1557,46034,53.1578,0.0001194,15.2934848,476.94014031191364,478.5773282132559,1 46034U 20055H   26117.79721984  .00003169  00000+0  12214-3 0  9994,2 46034  53.1578 258.5901 0001194  81.2332 278.8804 15.29348480316384
STARLINK-1558,46035,53.1596,0.0001085,15.30188069,474.5071009014737,475.99428603095566,1 46035U 20055J   26117.80647007  .00001270  00000+0  55029-4 0  9993,2 46035  53.1596 258.5653 0001085  78.4576 281.6547 15.30188069316413
STARLINK-1560,46036,53.16,0.0001353,15.30116113,474.53825989838697,476.39284474904525,1 46036U 20055K   26117.66219097  .00035947  00000+0  12231-2 0  9996,2 46036  53.1600 259.2420 0001353  97.6030 262.5125 15.30116113316394
STARLINK-1567,46038,53.0816,0.0005644,15.98645702,274.4185047621786,281.9321501173936,1 46038U 20055M   26117.91670139  .00519256  12640-3  10727-2 0  9999,2 46038  53.0816 245.4993 0005644 332.3503 244.3781 15.98645702  3548
STARLINK-1569,46039,53.1575,0.0001173,15.30184517,474.4573956357972,476.0652028768036,1 46039U 20055N   26117.80962925  .00003508  00000+0  13058-3 0  9997,2 46039  53.1575 258.5433 0001173  85.3436 274.7698 15.30184517316403
STARLINK-1582,46043,53.1586,0.0001142,15.31690268,469.98686089896,471.5511510307224,1 46043U 20055S   26117.86729385  .00003420  00000+0  12197-3 0  9995,2 46043  53.1586 258.1191 0001142  83.1679 276.9452 15.31690268316417
STARLINK-1591,46045,53.1591,0.0001243,15.30182827,474.41446734558576,476.11822341724746,1 46045U 20055U   26117.77697160 -.00002533  00000+0 -73475-4 0  9995,2 46045  53.1591 258.6973 0001243  77.2368 282.8772 15.30182827316382
STARLINK-1524,46047,53.1563,9.7e-05,15.30410152,473.9229509388715,475.2523795239267,1 46047U 20055W   26117.64046460  .00099657  00000+0  33105-2 0  9999,2 46047  53.1563 246.4652 0000970  42.7035 317.4041 15.30410152316565
STARLINK-1527,46048,53.159,0.0001014,15.31692961,470.0664999437349,471.45545645371385,1 46048U 20055X   26117.83195717  .00003272  00000+0  11717-3 0  9995,2 46048  53.1590 245.5599 0001014 109.5419 250.5692 15.31692961316575
